#aV2006 12  3  0  0   .00000000      96 DD+AD WGS84 FIT  NGA
## 1404       .00000000   900.00000000 54072  .0000000000000
+   30     1  2  3  4  5  6  7  8  9 10 11 12 13 14 16 17 18
+         19 20 21 22 23 24 25 26 27 28 29 30 31  0  0  0  0
+          0  0  0  0  0  0  0  0  0  0  0  0  0  0  0  0  0
+          0  0  0  0  0  0  0  0  0  0  0  0  0  0  0  0  0
+          0  0  0  0  0  0  0  0  0  0  0  0  0  0  0  0  0
++         0  0  0  0  0  0  0  0  0  0  0  0  0  0  0  0  0
++         0  0  0  0  0  0  0  0  0  0  0  0  0  0  0  0  0
++         0  0  0  0  0  0  0  0  0  0  0  0  0  0  0  0  0
++         0  0  0  0  0  0  0  0  0  0  0  0  0  0  0  0  0
++         0  0  0  0  0  0  0  0  0  0  0  0  0  0  0  0  0
%c cc cc ccc ccc cccc cccc cccc cccc ccccc ccccc ccccc ccccc
%c cc cc ccc ccc cccc cccc cccc cccc ccccc ccccc ccccc ccccc
%f  0.0000000  0.000000000  0.00000000000  0.000000000000000
%f  0.0000000  0.000000000  0.00000000000  0.000000000000000
%i    0    0    0    0      0      0      0      0         0
%i    0    0    0    0      0      0      0      0         0
/*      NGA, ST. LOUIS,MO.                                  
/*   EPHEMERIS COMPUTED FROM  3 DAYS OF DATA                
/* CCCCCCCCCCCCCCCCCCCCCCCCCCCCCCCCCCCCCCCCCCCCCCCCCCCCCCCCC
/* CCCCCCCCCCCCCCCCCCCCCCCCCCCCCCCCCCCCCCCCCCCCCCCCCCCCCCCCC
*  2006 12  3 19  0   .00000000                                                 
P  1  19223.457690  14885.894923  10978.677583     93.438454                    
V  1 -13253.285642  -3285.894897  28130.182014       .020277                    
P  2 -13372.834093 -19615.525532 -12392.643049     60.546539                    
V  2   -921.445560 -15458.497080  25720.562227       .035826                    
P  3  22743.359822  11449.991252  -8315.607958    440.676619                    
V  3 -10732.553737   1008.149143 -28317.261967       .238929                    
P  4  -5276.297720 -25827.073341   -232.850789    342.812163                    
V  4   3426.810121   -920.118628  31705.575286       .037219                    
P  5 -21322.256141  10424.677164  11536.092993    405.682175                    
V  5   8021.630849 -13174.002965  26365.217540       .233434                    
P  6 -16139.123288   9693.564854 -18569.297008    526.180199                    
V  6 -22621.824090  -8340.303511  15100.651319      -.163302                    
P  7  -2909.725291  15342.968060 -21108.694392    482.155654                    
V  7 -26942.927636  -6755.464021  -1250.412495      -.086435                    
P  8   2280.850396 -24566.472311  -9357.623751    -88.193345                    
V  8   4352.361886  11247.166581 -29291.328533      -.013343                    
P  9 -15476.101636  -1753.439614  20974.465190     47.307723                    
V  9  -6366.830076 -27209.187958  -6554.911893       .015561                    
P 10 -14429.112465  -6847.888346 -21372.188335     93.842608                    
V 10  20032.522356 -17833.556357  -7536.667021       .005976                    
P 11  16651.363660  -2407.812817  20490.124456     -1.837574                    
V 11   9034.436881  24908.343807  -4112.545190       .016656                    
P 12 -20098.172459   1682.963244  17553.904182    -97.471411                    
V 12  15166.922867 -15911.648865  18919.477769       .133589                    
P 13  14027.590999  -9260.314095 -20642.416259    118.811975                    
V 13  24191.854965   9378.284496  12324.184487       .037056                    
P 14   4394.715222  16025.501581  20820.220647       .630533                    
V 14 -24955.445699  -7863.190561  11294.941875       .010523                    
P 16  10613.732423  10820.995115 -21732.791804     98.051263                    
V 16 -20814.582828  18395.296603   -882.704814       .038836                    
P 17  -4304.644499 -16462.154238  20415.883960     87.580681                    
V 17  24913.897940   7183.848593  10931.538819      -.013167                    
P 18 -16454.846447  19621.941695   6514.546309   -253.204681                    
V 18  -8277.763277   2835.761952 -30368.271791      -.003115                    
P 19  25301.285563   7706.142772   3002.854027     40.857824                    
V 19   2399.602382   3968.983253 -31325.360557       .041106                    
P 20  22015.486968 -11949.312418   8686.939158    -21.789274                    
V 20  -6309.301286   9638.388271  28987.386234      -.000042                    
P 21  -6722.407417  21090.534479 -14171.854320     63.725385                    
V 21  -6148.286200 -17617.246103 -23701.149638       .014257                    
P 22  -5889.574702  20018.082000  16584.221727    153.517856                    
V 22 -17334.671194  11629.315537 -20413.312689       .023848                    
P 23  22994.197551  -2193.818503 -13363.287073    141.839944                    
V 23  15359.740717   6919.911505  25257.596982       .009485                    
P 24 -12596.540752 -18832.867496 -13444.563290     57.204954                    
V 24   -287.445674 -17685.669515  24967.258084       .030121                    
P 25  10927.897991  23553.563929  -4771.968971    406.341861                    
V 25   -937.376967   7206.682552  30995.185459      -.016149                    
P 26 -25504.916332  -8324.329233   1174.202878    -31.515897                    
V 26  -1385.716923  -1952.557528 -31993.662478      -.166973                    
P 27   6927.496524 -18703.301320 -16767.280158     81.228684                    
V 27   8095.621216  21223.759500 -19897.457075       .019645                    
P 28   9017.168954 -20721.666504  13967.764904     12.826355                    
V 28  14661.044678  -9603.830813 -24586.872413      -.008485                    
P 29 -24793.933830  -9630.781796  -2483.024889    238.230334                    
V 29   3749.037117   -571.852518 -31930.461401       .249607                    
P 30 -19081.322791  18381.208881    154.804620     18.319216                    
V 30  -1986.848233  -2844.220442  31472.230186       .011488                    
P 31   7886.451495  25085.998242  -3369.649246    -29.338267                    
V 31  -1829.266408   5027.157449  31388.711087       .083965                    
EOF
